NORAD_CAT_ID,OBJECT_NAME,OBJECT_TYPE,EPOCH,MEAN_MOTION,ECCENTRICITY,INCLINATION,RA_OF_ASC_NODE,ARG_OF_PERICENTER,MEAN_ANOMALY,BSTAR,MEAN_MOTION_DOT,MEAN_MOTION_DDOT,TLE_LINE0,TLE_LINE1,TLE_LINE2,SEMIMAJOR_AXIS,PERIOD,APOGEE,PERIGEE,DECAYED
53985.0,STARLINK-5147,PAYLOAD,2024-04-04 07:43:35,15.08835687,0.000149,53.2153,136.3827,94.9071,265.2092,2.2984e-05,7.8e-07,0.0,0 STARLINK-5147,1 53985U 22125X   24095.32193539  .00000078  00000-0  22984-4 0  9991,2 53985  53.2153 136.3827 0001490  94.9071 265.2092 15.08835687 83193,6917.894,95.438,540.789,538.728,0.0
53985.0,STARLINK-5147,PAYLOAD,2024-04-05 12:20:31,15.08844143,0.0001562,53.2158,131.0294,100.2092,259.9077,0.00019363,2.795e-05,0.0,0 STARLINK-5147,1 53985U 22125X   24096.51425225  .00002795  00000-0  19363-3 0  9997,2 53985  53.2158 131.0294 0001562 100.2092 259.9077 15.08844143 83372,6917.868,95.437,540.813,538.652,0.0
53985.0,STARLINK-5147,PAYLOAD,2024-04-05 18:42:04,15.08840327,0.0001582,53.2155,129.8396,101.084,259.033,0.0001188,1.603e-05,0.0,0 STARLINK-5147,1 53985U 22125X   24096.77921410  .00001603  00000-0  11880-3 0  9995,2 53985  53.2155 129.8396 0001582 101.0840 259.0330 15.08840327 83349,6917.879,95.438,540.839,538.65,0.0
53985.0,STARLINK-5147,PAYLOAD,2024-04-06 01:03:36,15.08839538,0.0001557,53.2152,128.6507,100.334,259.7828,0.0001087,1.442e-05,0.0,0 STARLINK-5147,1 53985U 22125X   24097.04417460  .00001442  00000-0  10870-3 0  9990,2 53985  53.2152 128.6507 0001557 100.3340 259.7828 15.08839538 83459,6917.882,95.438,540.824,538.67,0.0
53985.0,STARLINK-5147,PAYLOAD,2024-04-06 09:00:32,15.08838203,0.0001445,53.2155,127.1646,96.4465,263.6691,0.00011882,1.603e-05,0.0,0 STARLINK-5147,1 53985U 22125X   24097.37537608  .00001603  00000-0  11882-3 0  9996,2 53985  53.2155 127.1646 0001445  96.4465 263.6691 15.08838203 83437,6917.886,95.438,540.751,538.751,0.0
53985.0,STARLINK-5147,PAYLOAD,2024-04-06 18:32:51,15.08825964,0.0001401,53.2154,125.3809,91.3859,268.7293,0.00024643,3.635e-05,0.0,0 STARLINK-5147,1 53985U 22125X   24097.77282347  .00003635  00000-0  24643-3 0  9993,2 53985  53.2154 125.3809 0001401  91.3859 268.7293 15.08825964 83568,6917.923,95.438,540.757,538.819,0.0
53985.0,STARLINK-5147,PAYLOAD,2024-04-07 08:51:20,15.08833492,0.0001409,53.2157,122.7049,98.1349,261.9803,-2.6431e-05,-7.08e-06,0.0,0 STARLINK-5147,1 53985U 22125X   24098.36898420 -.00000708  00000-0 -26431-4 0  9992,2 53985  53.2157 122.7049 0001409  98.1349 261.9803 15.08833492 83584,6917.9,95.438,540.74,538.791,0.0
53985.0,STARLINK-5147,PAYLOAD,2024-04-07 18:23:38,15.08837587,0.0001422,53.2164,120.9207,95.8798,264.2357,3.4325e-05,2.58e-06,0.0,0 STARLINK-5147,1 53985U 22125X   24098.76642108  .00000258  00000-0  34325-4 0  9995,2 53985  53.2164 120.9207 0001422  95.8798 264.2357 15.08837587 83719,6917.888,95.438,540.736,538.769,0.0
53985.0,STARLINK-5147,PAYLOAD,2024-04-08 10:17:29,15.08844484,0.0001377,53.2165,117.9472,96.0446,264.0703,0.00011889,1.605e-05,0.0,0 STARLINK-5147,1 53985U 22125X   24099.42881506  .00001605  00000-0  11889-3 0  9992,2 53985  53.2165 117.9472 0001377  96.0446 264.0703 15.08844484 83810,6917.867,95.437,540.684,538.779,0.0
53985.0,STARLINK-5147,PAYLOAD,2024-04-09 00:35:58,15.08838408,0.0001339,53.2163,115.2702,93.6104,266.5041,0.00014064,1.951e-05,0.0,0 STARLINK-5147,1 53985U 22125X   24100.02497848  .00001951  00000-0  14064-3 0  9995,2 53985  53.2163 115.2702 0001339  93.6104 266.5041 15.08838408 83830,6917.885,95.438,540.677,538.824,0.0
53985.0,STARLINK-5147,PAYLOAD,2024-04-09 08:32:53,15.08840541,0.0001369,53.2164,113.7831,93.1812,266.9337,0.00012319,1.673e-05,0.0,0 STARLINK-5147,1 53985U 22125X   24100.35617872  .00001673  00000-0  12319-3 0  9994,2 53985  53.2164 113.7831 0001369  93.1812 266.9337 15.08840541 83889,6917.879,95.438,540.691,538.797,0.0
53985.0,STARLINK-5147,PAYLOAD,2024-04-09 18:05:12,15.08839357,0.0001356,53.216,111.9985,91.8776,268.2371,7.6964e-05,9.37e-06,0.0,0 STARLINK-5147,1 53985U 22125X   24100.75362100  .00000937  00000-0  76964-4 0  9998,2 53985  53.2160 111.9985 0001356  91.8776 268.2371 15.08839357 83948,6917.882,95.438,540.685,538.809,0.0
53985.0,STARLINK-5147,PAYLOAD,2024-04-10 05:12:54,15.08841849,0.0001498,53.2171,109.9167,90.9524,269.1639,2.0231e-05,3.4e-07,0.0,0 STARLINK-5147,1 53985U 22125X   24101.21730081  .00000034  00000-0  20231-4 0  9991,2 53985  53.2171 109.9167 0001498  90.9524 269.1639 15.08841849 84089,6917.875,95.437,540.776,538.703,0.0
53985.0,STARLINK-5147,PAYLOAD,2024-04-10 06:48:17,15.08842169,0.0001454,53.2167,109.6194,91.579,268.5369,2.3679e-05,8.9e-07,0.0,0 STARLINK-5147,1 53985U 22125X   24101.28354013  .00000089  00000-0  23679-4 0  9994,2 53985  53.2167 109.6194 0001454  91.5790 268.5369 15.08842169 84028,6917.874,95.437,540.745,538.733,0.0
53985.0,STARLINK-5147,PAYLOAD,2024-04-10 17:55:59,15.08842557,0.0001457,53.2168,107.5377,91.911,268.2049,3.405e-05,2.54e-06,0.0,0 STARLINK-5147,1 53985U 22125X   24101.74721862  .00000254  00000-0  34050-4 0  9994,2 53985  53.2168 107.5377 0001457  91.9110 268.2049 15.08842557 84092,6917.873,95.437,540.746,538.73,0.0
53985.0,STARLINK-5147,PAYLOAD,2024-04-11 06:39:04,15.08844493,0.0001435,53.2164,105.1585,93.1563,266.9594,7.0478e-05,8.34e-06,0.0,0 STARLINK-5147,1 53985U 22125X   24102.27713546  .00000834  00000-0  70478-4 0  9991,2 53985  53.2164 105.1585 0001435  93.1563 266.9594 15.08844493 84243,6917.867,95.437,540.724,538.739,0.0
53985.0,STARLINK-5147,PAYLOAD,2024-04-12 03:19:05,15.08836759,0.0001416,53.2161,101.2923,93.8556,266.2598,4.1776e-05,3.77e-06,0.0,0 STARLINK-5147,1 53985U 22125X   24103.13826133  .00000377  00000-0  41776-4 0  9995,2 53985  53.2161 101.2923 0001416  93.8556 266.2598 15.08836759 84378,6917.89,95.438,540.735,538.776,0.0
53985.0,STARLINK-5147,PAYLOAD,2024-04-12 09:40:38,15.08838345,0.0001436,53.2166,100.1027,94.9612,265.1544,3.9358e-05,3.38e-06,0.0,0 STARLINK-5147,1 53985U 22125X   24103.40322072  .00000338  00000-0  39358-4 0  9998,2 53985  53.2166 100.1027 0001436  94.9612 265.1544 15.08838345 84342,6917.885,95.438,540.744,538.757,0.0
53985.0,STARLINK-5147,PAYLOAD,2024-04-13 04:45:16,15.08838892,0.0001461,53.217,96.5341,97.2432,262.8727,7.3585e-06,-1.71e-06,0.0,0 STARLINK-5147,1 53985U 22125X   24104.19810222 -.00000171  00000-0  73585-5 0  9991,2 53985  53.2170  96.5341 0001461  97.2432 262.8727 15.08838892 84533,6917.884,95.438,540.759,538.738,0.0
53985.0,STARLINK-5147,PAYLOAD,2024-04-13 06:20:39,15.08838424,0.0001465,53.2171,96.237,97.0479,263.068,8.1804e-06,-1.58e-06,0.0,0 STARLINK-5147,1 53985U 22125X   24104.26434249 -.00000158  00000-0  81804-5 0  9998,2 53985  53.2171  96.2370 0001465  97.0479 263.0680 15.08838424 84471,6917.885,95.438,540.764,538.737,0.0
53985.0,STARLINK-5147,PAYLOAD,2024-04-14 06:11:25,15.08841566,0.0001459,53.2178,91.7766,101.0035,259.1122,9.1784e-05,1.173e-05,0.0,0 STARLINK-5147,1 53985U 22125X   24105.25793973  .00001173  00000-0  91784-4 0  9994,2 53985  53.2178  91.7766 0001459 101.0035 259.1122 15.08841566 84696,6917.876,95.437,540.75,538.731,0.0
53985.0,STARLINK-5147,PAYLOAD,2024-04-15 04:26:50,15.08838427,0.0001494,53.2178,87.6155,101.1233,258.9927,6.9585e-05,8.2e-06,0.0,0 STARLINK-5147,1 53985U 22125X   24106.18530481  .00000820  00000-0  69585-4 0  9992,2 53985  53.2178  87.6155 0001494 101.1233 258.9927 15.08838427 84830,6917.885,95.438,540.784,538.717,0.0
53985.0,STARLINK-5147,PAYLOAD,2024-04-15 21:56:04,15.08841351,0.0001516,53.2178,84.3441,103.6047,256.5114,4.4167e-05,4.15e-06,0.0,0 STARLINK-5147,1 53985U 22125X   24106.91394474  .00000415  00000-0  44167-4 0  9992,2 53985  53.2178  84.3441 0001516 103.6047 256.5114 15.08841351 84873,6917.876,95.437,540.79,538.693,0.0
53985.0,STARLINK-5147,PAYLOAD,2024-04-16 07:28:22,15.0885503,0.0001618,53.2173,82.561,101.9787,258.1386,8.1837e-06,-1.58e-06,0.0,0 STARLINK-5147,1 53985U 22125X   24107.31137716 -.00000158  00000-0  81837-5 0  9992,2 53985  53.2173  82.5610 0001618 101.9787 258.1386 15.08855030 85005,6917.834,95.437,540.819,538.58,0.0
53985.0,STARLINK-5147,PAYLOAD,2024-04-16 15:25:18,15.08849147,0.0001499,53.2178,81.0716,91.515,268.6014,0.00014949,2.093e-05,0.0,0 STARLINK-5147,1 53985U 22125X   24107.64257758  .00002093  00000-0  14949-3 0  9994,2 53985  53.2178  81.0716 0001499  91.5150 268.6014 15.08849147 84988,6917.852,95.437,540.754,538.68,0.0
53985.0,STARLINK-5147,PAYLOAD,2024-04-17 07:19:08,15.08878172,0.000139,53.2159,78.1001,105.7061,254.4085,0.00059547,9.211e-05,0.0,0 STARLINK-5147,1 53985U 22125X   24108.30496167  .00009211  00000-0  59547-3 0  9999,2 53985  53.2159  78.1001 0001390 105.7061 254.4085 15.08878172 85151,6917.764,95.435,540.59,538.667,0.0
53985.0,STARLINK-5147,PAYLOAD,2024-04-18 03:59:10,15.08852634,0.0001577,53.217,74.2311,133.8922,226.22,6.9095e-05,8.12e-06,0.0,0 STARLINK-5147,1 53985U 22125X   24109.16608802  .00000812  00000-0  69095-4 0  9993,2 53985  53.2170  74.2311 0001577 133.8922 226.2200 15.08852634 85285,6917.842,95.437,540.798,538.616,0.0
53985.0,STARLINK-5147,PAYLOAD,2024-04-18 07:09:57,15.08825796,0.000167,53.2179,73.6375,74.1508,285.9668,-0.00029703,-5.01e-05,0.0,0 STARLINK-5147,1 53985U 22125X   24109.29858284 -.00005010  00000-0 -29703-3 0  9996,2 53985  53.2179  73.6375 0001670  74.1508 285.9668 15.08825796 85300,6917.924,95.438,540.944,538.634,0.0
53985.0,STARLINK-5147,PAYLOAD,2024-04-19 03:49:58,15.08845288,0.0001692,53.2183,69.7686,89.4643,270.6543,-0.00026302,-4.472e-05,0.0,0 STARLINK-5147,1 53985U 22125X   24110.15970766 -.00004472  00000-0 -26302-3 0  9996,2 53985  53.2183  69.7686 0001692  89.4643 270.6543 15.08845288 85434,6917.864,95.437,540.9,538.559,0.0
53985.0,STARLINK-5147,PAYLOAD,2024-04-19 07:00:44,15.08845927,0.0001746,53.219,69.171,93.0106,267.1086,-0.00023603,-4.043e-05,0.0,0 STARLINK-5147,1 53985U 22125X   24110.29218601 -.00004043  00000-0 -23603-3 0  9999,2 53985  53.2190  69.1710 0001746  93.0106 267.1086 15.08845927 85386,6917.862,95.437,540.935,538.519,0.0
